0 FENGYUN 1C DEB
1 30035U 99025NL  13281.53839160  .00000049  00000-0  33009-4 0  8975
2 30035 099.3324 138.7287 0117467 020.7898 007.9512 14.35458564352952
0 FENGYUN 1C DEB
1 30035U 99025NL  13282.58858579  .00000053  00000-0  34250-4 0  8981
2 30035 099.3322 139.8645 0117419 017.7466 034.9869 14.35459113353108
0 FENGYUN 1C DEB
1 30035U 99025NL  13283.85757733  .00000067  00000-0  39012-4 0  8999
2 30035 099.3320 141.2369 0117351 014.0698 112.6927 14.35459542353282
0 FENGYUN 1C DEB
1 30035U 99025NL  13286.15600584  .00000073  00000-0  40826-4 0  9012
2 30035 099.3314 143.7227 0117243 007.4084 110.1752 14.35460053353615
0 FENGYUN 1C DEB
1 30035U 99025NL  13288.17729030  .00000146  00000-0  64287-4 0  9023
2 30035 099.3309 145.9087 0117157 001.5494 115.4784 14.35460981353906
0 FENGYUN 1C DEB
1 30035U 99025NL  13289.34948641  .00000093  00000-0  47262-4 0  9030
2 30035 099.3306 147.1764 0117087 358.1351 053.0049 14.35461527354071
0 FENGYUN 1C DEB
1 30035U 99025NL  13290.60527458  .00000113  00000-0  53702-4 0  9040
2 30035 099.3304 148.5344 0117026 354.4857 062.5014 14.35461967354256
0 FENGYUN 1C DEB
1 30035U 99025NL  13291.86134499  .00000115  00000-0  54526-4 0  9056
2 30035 099.3303 149.8927 0116968 350.8419 073.4527 14.35462313354430
0 FENGYUN 1C DEB
1 30035U 99025NL  13293.19685644  .00000127  00000-0  58489-4 0  9063
2 30035 099.3302 151.3368 0116905 346.9625 134.9354 14.35462753354622
0 FENGYUN 1C DEB
1 30035U 99025NL  13294.85848619  .00000140  00000-0  62687-4 0  9071
2 30035 099.3302 153.1335 0116827 342.1277 081.7015 14.35463476354862
